IRIDIUM 33 DEB          
1 38474U 97051AAB 26116.29122099  .00001571  00000+0  38760-3 0  9998
2 38474  86.3404 311.4127 0025242   2.0746 358.0560 14.51375977672692
IRIDIUM 33 DEB          
1 39777U 97051AAJ 26116.43569656  .00017176  00000+0  34738-2 0  9993
2 39777  85.9572 109.4709 0061566  91.4301 269.3962 14.60035865621489
IRIDIUM 33 DEB          
1 39778U 97051AAK 26116.37357622  .00003538  00000+0  80931-3 0  9999
2 39778  86.3798 344.7435 0005322 306.7798  53.2920 14.55450229626506
IRIDIUM 33 DEB          
1 39781U 97051AAN 26115.48471362  .00013815  00000+0  51087-2 0  9990
2 39781  86.3746 202.7651 0175799 202.3236 172.8803 14.24075367100080
IRIDIUM 33 DEB          
1 40996U 97051ABJ 26116.27865949  .00052923  00000+0  33976-2 0  9996
2 40996  86.3434 297.9132 0004360 263.8856 218.5131 15.08227115645088
IRIDIUM 33 DEB          
1 40998U 97051ABL 26116.44826685  .00001309  00000+0  36483-3 0  9990
2 40998  86.3862 356.1038 0008139   9.5913 110.2584 14.45620718 86271
IRIDIUM 33 DEB          
1 46435U 97051ABN 26115.81082395  .00008173  00000+0  21222-2 0  9994
2 46435  86.2788 135.8997 0197762 193.5928 345.1445 14.38526762 98405
IRIDIUM 33 DEB          
1 46734U 97051ABR 26109.30446626  .00001915  00000+0  56413-3 0  9992
2 46734  86.2589 306.8288 0037670 271.8827 269.0255 14.42791376648491
IRIDIUM 33 DEB          
1 46965U 97051ABX 26116.22675881  .00003724  00000+0  74820-3 0  9996
2 46965  86.3315 280.9928 0017684 223.5525 315.9887 14.61326920642317
IRIDIUM 33 DEB          
1 46971U 97051ACD 26116.16693559  .00047558  00000+0  31213-2 0  9999
2 46971  86.3145 269.2889 0007067 181.1926 306.0754 15.07424987662497
IRIDIUM 33 DEB          
1 46972U 97051ACE 26101.43150669  .00001303  00000+0  32218-3 0  9999
2 46972  86.3910 347.8745 0011865  68.0639  58.2244 14.51299210633087
IRIDIUM 33 DEB          
1 46974U 97051ACG 26116.51744192  .00012694  00000+0  32726-2 0  9994
2 46974  86.2986  46.2556 0092072  97.0452 264.1233 14.47424263594563
